STARLINK-30271          
1 57669U 23124G   26068.64749266  .00003481  00000+0  12970-3 0  9998
2 57669  53.1609 207.2469 0001531  98.7407 261.3767 15.30174088143551
EXO-0                   
1 59175U 23174DK  26068.71046781  .00011582  00000+0  36716-3 0  9992
2 59175  97.3864 148.9039 0009878 157.1125 203.0559 15.32821991129797
